[{"OBJECT_NAME":"SDA_1668","OBJECT_ID":"2025-230E","EPOCH":"2026-03-09T17:28:24.297600","MEAN_MOTION":13.85494162,"ECCENTRICITY":0.00045481,"INCLINATION":81.3,"RA_OF_ASC_NODE":303.8056,"ARG_OF_PERICENTER":118.5208,"MEAN_ANOMALY":241.6407,"EPHEMERIS_TYPE":0,"CLASSIFICATION_TYPE":"U","NORAD_CAT_ID":65978,"ELEMENT_SET_NO":999,"REV_AT_EPOCH":2005,"BSTAR":0.00023740567,"MEAN_MOTION_DOT":2.83e-6,"MEAN_MOTION_DDOT":0},{"OBJECT_NAME":"COSMOS 1506","OBJECT_ID":"1983-108A","EPOCH":"2026-03-09T18:51:57.109824","MEAN_MOTION":13.76531663,"ECCENTRICITY":0.00414902,"INCLINATION":82.935,"RA_OF_ASC_NODE":345.5366,"ARG_OF_PERICENTER":279.7789,"MEAN_ANOMALY":134.2306,"EPHEMERIS_TYPE":0,"CLASSIFICATION_TYPE":"U","NORAD_CAT_ID":14450,"ELEMENT_SET_NO":999,"REV_AT_EPOCH":94398,"BSTAR":7.4459352e-5,"MEAN_MOTION_DOT":8.8e-7,"MEAN_MOTION_DDOT":0}]
